GLOBALSTAR M069         
1 31573U 07020C   26199.88098780 -.00000072  00000+0  19067-3 0  9998
2 31573  52.0011 162.4190 0001537 217.7382 166.5826 12.23472343882686
GLOBALSTAR M072         
1 31574U 07020D   26199.85959903 -.00000083  00000+0  10856-4 0  9999
2 31574  51.9949  15.9248 0001657  42.3071  97.2196 11.91658811878754
GLOBALSTAR M066         
1 32265U 07048C   26199.78184714 -.00000039  00000+0  47372-3 0  9992
2 32265  51.9611 327.2145 0005552 108.9165  56.2792 12.30389915864116
GLOBALSTAR M079         
1 37188U 10054A   26199.82023641 -.00000108  00000+0 -25975-4 0  9992
2 37188  52.0054  12.3741 0001128  83.7009  24.5000 12.62266405726541
GLOBALSTAR M074         
1 37189U 10054B   26199.51367115 -.00000108  00000+0 -23623-4 0  9994
2 37189  52.0034  12.5681 0000860  98.2672 296.1009 12.62262064727111
GLOBALSTAR M076         
1 37190U 10054C   26199.88696104 -.00000092  00000+0  65446-4 0  9999
2 37190  52.0048  11.6376 0001098  97.6610  73.7248 12.62262528726879
GLOBALSTAR M077         
1 37191U 10054D   26199.70209711 -.00000100  00000+0 -41263-3 0  9996
2 37191  51.9961  99.3059 0002202 231.6265 142.4542 11.67547264724828
GLOBALSTAR M075         
1 37192U 10054E   26199.86479344 -.00000101  00000+0  16805-4 0  9990
2 37192  51.9955  53.7414 0000778  70.4833 300.7164 12.62267882725941
GLOBALSTAR M073         
1 37193U 10054F   26199.81831876 -.00000095  00000+0  51589-4 0  9998
2 37193  52.0081 328.0085 0001023 101.5931  56.6217 12.62266940727925
GLOBALSTAR M083         
1 37739U 11033A   26199.67434257 -.00000083  00000+0  11369-3 0  9996
2 37739  51.9859 276.6336 0000709 109.6278  55.2759 12.62264302696923
GLOBALSTAR M088         
1 37740U 11033B   26199.72887853 -.00000113  00000+0 -50044-4 0  9997
2 37740  52.0189 182.9693 0000104  44.9161 126.6719 12.62269480692476
GLOBALSTAR M091         
1 37741U 11033C   26199.86659493 -.00000095  00000+0  46736-4 0  9991
2 37741  51.9985 145.4687 0000511  31.0171 347.2313 12.62264247693283
GLOBALSTAR M085         
1 37742U 11033D   26199.69495816 -.00000082  00000+0  11916-3 0  9997
2 37742  52.0127  97.3113 0000848  46.7197 331.2121 12.62264423693777
GLOBALSTAR M081         
1 37743U 11033E   26199.72148858 -.00000088  00000+0  90795-4 0  9992
2 37743  51.9958  99.6306 0000734  59.1865 319.2313 12.62265329693923
GLOBALSTAR M089         
1 37744U 11033F   26199.77420131 -.00000100  00000+0  20903-4 0  9994
2 37744  51.9940  53.6227 0000713  92.7993 346.4037 12.62267618694771
GLOBALSTAR M084         
1 38040U 11080A   26199.72900681 -.00000086  00000+0  10179-3 0  9990
2 38040  52.0015 281.2602 0000756 135.0336  38.4577 12.62263620672740
